ORBCOMM FM37            
1 33064U 08031E   25038.87911958  .00003081  00000+0  44173-3 0  9997
2 33064  48.4383 238.0312 0006254 181.8768 269.3869 14.78897254894901
ORBCOMM FM40            
1 33065U 08031F   25038.91560793  .00004553  00000+0  60964-3 0  9991
2 33065  48.4398 223.9524 0007779 192.9303 279.6445 14.80900667894996
VESSELSAT 1             
1 37840U 11058C   25039.49272229  .00000494  00000+0  12462-3 0  9997
2 37840  19.9611 152.5930 0013525 210.7358 149.2254 14.11306009688338
ORBCOMM FM109           
1 40086U 14040A   25039.35535858  .00001262  00000+0  31014-3 0  9990
2 40086  47.0027 264.5929 0001429 114.8356 245.2678 14.57778529562384
ORBCOMM FM107           
1 40087U 14040B   25039.32102606  .00001341  00000+0  32660-3 0  9995
2 40087  47.0045 265.7623 0000923  46.8587 313.2376 14.57841035562370
ORBCOMM FM106           
1 40088U 14040C   25039.15998670  .00002148  00000+0  39484-3 0  9998
2 40088  47.0596  98.8817 0017196 192.0772 167.9708 14.68853481564715
ORBCOMM FM111           
1 40089U 14040D   25039.17784235  .00005321  00000+0  63484-3 0  9994
2 40089  47.0028 326.1050 0030813 295.3979  64.3729 14.85078263571042
ORBCOMM FM104           
1 40090U 14040E   25039.10111986  .00001311  00000+0  33063-3 0  9991
2 40090  47.0057 298.8761 0016780 334.4120  25.5933 14.56292955561904
